97P/Metcalf-Brewington,e,17.8532,185.1261,228.2008,4.798983,0.0937519,0.45764501,227.6017,04/08.0/2018,2000,g  5.5,6.0
# From MPC 83523
98P/Takamizawa,e,10.5556,114.7056,157.8286,3.802501,0.1329230,0.56177857,226.6742,04/08.0/2018,2000,g  9.0,8.0
# From MPC 75718
99P/Kowal,e,4.3385,28.1737,174.6075,6.122539,0.0650589,0.23108415,264.8484,04/08.0/2018,2000,g  4.5,6.0
# From MPC 84321
100P/Hartley,e,25.5894,37.7213,181.9464,3.429559,0.1551839,0.41335578,114.1881,04/08.0/2018,2000,g  9.0,8.0
# From MPC105241
101P/Chernykh,e,5.0516,116.1881,277.6929,5.795876,0.0706359,0.59504241,314.3933,04/08.0/2018,2000,g 10.0,4.8
# From MPC 86232
102P/Shoemaker,e,25.9068,339.5764,20.6619,3.807005,0.1326872,0.45833307,224.5450,04/08.0/2018,2000,g  6.5,8.0
# From NK 2714
103P/Hartley,e,13.5939,219.7224,181.3181,3.477476,0.1519875,0.69332472,53.5808,04/08.0/2018,2000,g  8.5,8.0
# From MPC 10028
104P/Kowal,e,10.3709,235.3294,200.5438,3.256007,0.1677552,0.64313822,123.8489,04/08.0/2018,2000,g 16.0,4.0
# From MPC109147
105P/Singer Brewster,e,9.1761,192.4335,46.5019,3.467562,0.1526398,0.41040913,341.0125,04/08.0/2018,2000,g 11.5,6.0
# From MPC 92276
106P/Schuster,e,20.9903,49.7812,355.2147,3.707581,0.1380601,0.60550694,187.7394,04/08.0/2018,2000,g 14.0,4.8
# From MPC 94676
107P/Wilson-Harrington,e,2.7981,266.8162,95.4070,2.626812,0.2315051,0.63077581,349.4602,04/08.0/2018,2000,g 16.0,2.0
# From MPC 89313
108P/Ciffreo,e,13.9456,52.4099,357.3492,3.657060,0.1409308,0.57462917,176.7048,04/08.0/2018,2000,g  8.0,12.0
# From ICA 105, 420
109P/Swift-Tuttle,e,113.4324,139.4823,152.9537,26.08296,0.0073989,0.96369422,68.5111,04/08.0/2018,2000,g  4.5,6.0
# From MPC 91618
110P/Hartley,e,11.6977,287.5305,167.3997,3.604621,0.1440173,0.31622760,174.0212,04/08.0/2018,2000,g  1.0,12.0
# From MPC 75718
111P/Helin-Roman-Crockett,e,4.2277,89.7660,1.6908,4.140283,0.1169928,0.10524798,223.1694,04/08.0/2018,2000,g  5.0,8.0
# From MPC105241
112P/Urata-Niijima,e,24.1990,31.8965,21.3684,3.528118,0.1487269,0.58897208,260.1635,04/08.0/2018,2000,g 14.0,6.0
# From MPC 92984
113P/Spitaler,e,5.3057,11.5940,52.3160,3.645705,0.1415897,0.45093121,149.2774,04/08.0/2018,2000,g 13.5,4.0
# From MPC105241
114P/Wiseman-Skiff,e,18.2732,271.0621,172.8431,3.545089,0.1476601,0.55447833,264.5754,04/08.0/2018,2000,g 11.5,6.0
# From MPC105241
115P/Maury,e,11.6734,176.0414,121.0397,4.271647,0.1116377,0.51822617,265.7556,04/08.0/2018,2000,g 10.5,6.0
# From MPC106348
116P/Wild,e,3.6073,20.9947,173.3854,3.485497,0.1514632,0.37195234,123.8119,04/08.0/2018,2000,g  2.5,10.0
# From MPC 95735
117P/Helin-Roman-Alu,e,8.7017,58.8769,222.4959,4.091561,0.1190887,0.25493655,175.3389,04/08.0/2018,2000,g  2.5,8.0
# From MPC 95735
118P/Shoemaker-Levy,e,8.4894,151.2765,302.8251,3.467427,0.1526487,0.43106462,100.4854,04/08.0/2018,2000,g 12.0,4.0
# From MPC 84628
119P/Parker-Hartley,e,5.5868,240.4960,181.5666,4.189141,0.1149520,0.32337522,166.5394,04/08.0/2018,2000,g  3.5,8.0
# From MPC 80901
120P/Mueller,e,8.6606,2.6013,30.2030,4.036333,0.1215412,0.36791922,223.4425,04/08.0/2018,2000,g 12.0,4.0
# From MPC 10028
121P/Shoemaker-Holt,e,20.1617,94.1404,11.3612,4.591716,0.1001709,0.18327862,168.5296,04/08.0/2018,2000,g  6.5,8.0
# From MPC 75718
122P/de Vico,e,84.6492,79.5125,13.0452,17.65423,0.0132871,0.96248322,109.2250,04/08.0/2018,2000,g  7.5,5.2
# From MPC102101
123P/West-Hartley,e,15.3599,46.5012,102.9946,3.859070,0.1300110,0.44886017,320.5989,04/08.0/2018,2000,g  4.0,10.0
# From MPC105242
124P/Mrkos,e,31.5214,0.3975,183.8219,3.318879,0.1630110,0.50378172,237.7926,04/08.0/2018,2000,g 13.5,2.8
# From MPC 94676
125P/Spacewatch,e,9.9893,153.1819,87.1855,3.124433,0.1784626,0.51346936,334.6632,04/08.0/2018,2000,g 13.0,6.0
# From MPC 66205
126P/IRAS,e,45.7827,357.8194,356.5203,5.642673,0.0735321,0.69520379,219.0665,04/08.0/2018,2000,g  6.0,8.0
# From MPC 84321
127P/Holt-Olmstead,e,14.3023,13.6499,6.6628,3.448564,0.1539028,0.36015776,115.6655,04/08.0/2018,2000,g 11.0,6.0
# From MPC 75719
128P/Shoemaker-Holt,e,4.3648,214.2958,210.5378,4.498417,0.1033034,0.32069827,46.7384,04/08.0/2018,2000,g  8.5,4.0
# From MPC 10028
129P/Shoemaker-Levy,e,3.4442,184.8894,308.7955,4.277084,0.1114249,0.08437826,169.7773,04/08.0/2018,2000,g 11.0,4.0
# From MPC 78188
130P/McNaught-Hughes,e,6.0653,70.2560,245.9124,3.382230,0.1584526,0.46081803,12.0795,04/08.0/2018,2000,g 10.0,6.0
# From MPC102101
131P/Mueller,e,7.3540,214.1914,179.1022,3.679939,0.1396185,0.34308709,319.3266,04/08.0/2018,2000,g 11.0,4.0
# From MPC 92985
132P/Helin-Roman-Alu,e,5.4476,175.0823,216.0823,3.855990,0.1301668,0.57199929,189.0966,04/08.0/2018,2000,g 11.0,6.0
# From MPC 94676
133P/Elst-Pizarro,e,1.3892,160.1404,131.4352,3.164042,0.1751220,0.15777255,331.0124,04/08.0/2018,2000,g 15.4,2.0
# From MPC 89012
134P/Kowal-Vavrova,e,4.3504,202.0806,18.7537,6.248916,0.0630953,0.58803749,89.3943,04/08.0/2018,2000,g 11.5,4.0
# From MPC 92985
135P/Shoemaker-Levy,e,6.0635,213.0774,22.1005,3.805000,0.1327920,0.29579647,166.3002,04/08.0/2018,2000,g  7.0,8.0
# From MPC101100
136P/Mueller,e,9.4172,137.4371,225.0506,4.200437,0.1144886,0.29115733,77.5495,04/08.0/2018,2000,g 11.0,4.0
# From MPC 75719
137P/Shoemaker-Levy,e,4.8539,233.0812,141.0112,4.517811,0.1026389,0.57272992,334.4027,04/08.0/2018,2000,g 11.0,4.0
# From MPC102101
138P/Shoemaker-Levy,e,10.0893,309.3338,95.6120,3.622851,0.1429316,0.52991698,304.2853,04/08.0/2018,2000,g 15.0,6.0
# From MPC108598
139P/Vaisala-Oterma,e,2.3331,242.2066,166.0460,4.529848,0.1022301,0.24625134,12.0938,04/08.0/2018,2000,g  9.5,4.0
# From MPC 92985
140P/Bowell-Skiff,e,3.8217,343.3755,172.9616,6.445553,0.0602301,0.69136992,58.6434,04/08.0/2018,2000,g 11.5,6.0
# From MPC105242
141P/Machholz,e,13.8986,242.0430,153.6320,3.041462,0.1858148,0.74288972,178.1892,04/08.0/2018,2000,g 12.0,12.0
# From MPC 71683
142P/Ge-Wang,e,12.2906,176.3573,174.3817,4.972097,0.0888985,0.49880653,259.3020,04/08.0/2018,2000,g  8.5,6.0
# From MPC 94676
143P/Kowal-Mrkos,e,4.6958,245.3046,320.8705,4.296350,0.1106763,0.41060392,356.7554,04/08.0/2018,2000,g 13.5,2.0
# From MPC104795
144P/Kushida,e,4.1402,245.3859,216.0631,3.855309,0.1302013,0.63083331,76.0692,04/08.0/2018,2000,g  8.5,8.0
# From MPC108598
145P/Shoemaker-Levy,e,11.2596,26.8089,10.3558,4.145297,0.1167806,0.54067903,25.5901,04/08.0/2018,2000,g 13.5,4.0
# From MPC 10028
146P/Shoemaker-LINEAR,e,23.0732,53.4551,316.9473,4.037069,0.1215080,0.64580002,78.6158,04/08.0/2018,2000,g 15.0,4.0
# From MPC 75720
147P/Kushida-Muramatsu,e,2.3698,93.6057,348.1081,3.817484,0.1321412,0.27721257,101.3262,04/08.0/2018,2000,g 14.0,4.0
# From MPC 89730
148P/Anderson-LINEAR,e,3.6859,89.7132,6.5192,3.667362,0.1403374,0.54051561,144.4539,04/08.0/2018,2000,g 16.0,2.0
# From MPC 75720
149P/Mueller,e,29.7688,145.2352,43.7618,4.317094,0.1098796,0.38991105,325.4021,04/08.0/2018,2000,g  8.0,8.0
# From MPC 75720
150P/LONEOS,e,18.5100,272.4123,245.6413,3.881344,0.1288935,0.54670579,80.2015,04/08.0/2018,2000,g 13.5,4.0
# From MPC 95214
151P/Helin,e,4.7210,143.1443,216.1627,5.771267,0.0710882,0.57183215,64.9180,04/08.0/2018,2000,g 10.0,6.0
# From MPC 79346
152P/Helin-Lawrence,e,9.8778,91.8673,163.5872,4.486926,0.1037005,0.30881277,217.3842,04/08.0/2018,2000,g 11.5,4.0
# From MPC 46101
153P/Ikeya-Zhang,e,27.7929,93.1259,35.0557,51.26648,0.0026851,0.98992076,0.0000,03/20.0800/2002,2000,g  7.0,4.0
# From MPC 87068
154P/Brewington,e,17.6287,343.0004,47.9434,4.804604,0.0935875,0.67487086,148.1267,04/08.0/2018,2000,g  2.5,12.0
# From MPC 75720
155P/Shoemaker,e,6.3960,97.2088,14.7054,6.585923,0.0583148,0.72660362,325.8149,04/08.0/2018,2000,g 10.0,4.8
# From MPC105242
156P/Russell-LINEAR,e,19.9583,37.8905,358.0995,3.463156,0.1529312,0.61896487,214.4207,04/08.0/2018,2000,g 15.5,2.0
# From MPC104795
157P/Tritton,e,7.3130,299.3621,149.3547,3.406039,0.1567941,0.60406364,104.3528,04/08.0/2018,2000,g 10.0,4.0
# From MPC 10028
158P/Kowal-LINEAR,e,7.8725,137.0540,245.5822,4.772845,0.0945231,0.02350412,180.7729,04/08.0/2018,2000,g  9.0,4.0
# From MPC 75721
159P/LONEOS,e,23.4625,55.0241,4.7704,5.862724,0.0694312,0.38165204,356.8861,04/08.0/2018,2000,g 10.0,4.0
# From MPC102101
160P/LINEAR,e,15.6380,333.6735,12.4710,3.772058,0.1345354,0.52749563,278.8759,04/08.0/2018,2000,g 15.5,2.0
# From MPC 75721
161P/Hartley-IRAS,e,95.6199,1.2829,46.9191,7.725131,0.0459034,0.83480378,215.0740,04/08.0/2018,2000,g  8.5,6.0
# From MPC105242
162P/Siding Spring,e,27.8003,31.0897,357.1398,3.082297,0.1821345,0.58701962,182.9448,04/08.0/2018,2000,g 12.0,4.0
# From MPC102101
163P/NEAT,e,12.7080,102.0996,349.7474,3.769487,0.1346730,0.45194730,294.7711,04/08.0/2018,2000,g 14.5,4.0
# From MPC106349
164P/Christensen,e,16.2526,88.3063,325.9330,3.661535,0.1406726,0.53974249,352.4861,04/08.0/2018,2000,g 11.0,4.0
# From MPC 75721
165P/LINEAR,e,15.9039,0.5707,126.4622,17.92094,0.0129916,0.61620493,84.6440,04/08.0/2018,2000,g 11.5,2.0
# From MPC 75722
166P/NEAT,e,15.3576,64.5378,321.7708,13.86950,0.0190815,0.37979063,111.0870,04/08.0/2018,2000,g  5.5,4.0
# From MPC 75722
167P/CINEOS,e,19.1117,295.7309,343.5746,16.14865,0.0151880,0.27293779,94.2101,04/08.0/2018,2000,g  9.5,2.0
# From MPC102101
168P/Hergenrother,e,21.6364,355.6354,14.7442,3.586636,0.1451019,0.62069954,289.7708,04/08.0/2018,2000,g 15.5,4.0
# From MPC 94676
169P/NEAT,e,11.2956,176.0865,218.0887,2.602353,0.2347766,0.76804178,354.9284,04/08.0/2018,2000,g 16.0,2.0
# From MPC 89012
170P/Christensen,e,10.1250,142.9182,225.8039,4.198143,0.1145825,0.30321712,148.9019,04/08.0/2018,2000,g 12.0,4.0
# From MPC102102
171P/Spahr,e,21.9329,101.7004,347.1641,3.558166,0.1468469,0.50196111,318.7737,04/08.0/2018,2000,g 13.5,4.0
# From MPC 93588
172P/Yeung,e,11.2370,30.8868,209.1612,4.207025,0.1142198,0.20674383,44.6316,04/08.0/2018,2000,g 13.0,4.0
# From MPC 75722
173P/Mueller,e,16.4963,100.4207,29.6085,5.694242,0.0725354,0.26097391,261.9779,04/08.0/2018,2000,g  7.5,4.0
# From MPC 92985
174P/Echeclus,e,4.3442,173.3273,162.7880,10.68354,0.0282248,0.45588357,30.5643,04/08.0/2018,2000,g  9.4,2.0
# From MPC102102
